ONEWEB-0674             
1 55833U 23029AP  25184.48497444  .00002267  00000+0  60766-2 0  9997
2 55833  87.9044 359.1098 0002112 107.0352 253.1009 13.14522749114281
ONEWEB-0675             
1 55834U 23029AQ  25183.91926394  .00000000  00000+0 -31422-4 0  9999
2 55834  87.9217  14.4269 0001965  80.2291 279.9064 13.19723249112855
ONEWEB-0720             
1 55835U 23029AR  25183.91138337 -.00000025  00000+0 -95962-4 0  9999
2 55835  87.9217  14.4250 0002235  95.6850 264.4538 13.19725583112777
ONEWEB-0537             
1 56046U 23043A   25184.06456840  .00000090  00000+0  20233-3 0  9997
2 56046  87.9062 298.3441 0001863  93.8505 266.2839 13.16595029113938
ONEWEB-0538             
1 56047U 23043B   25184.05822998 -.00000009  00000+0 -56661-4 0  9995
2 56047  87.9052 298.3637 0002150  94.6639 265.4737 13.16594586113948
ONEWEB-0546             
1 56048U 23043C   25184.27354752  .00000048  00000+0  91485-4 0  9992
2 56048  87.9063 298.2958 0001458  82.2765 277.8532 13.16594490113965
ONEWEB-0547             
1 56049U 23043D   25184.36473328 -.00000548  00000+0 -13588-2 0  9997
2 56049  87.9258 313.5529 0002086  99.9294 260.2076 13.21816883113055
ONEWEB-0548             
1 56050U 23043E   25184.22288575  .00000123  00000+0  28930-3 0  9997
2 56050  87.9047 298.3402 0001841 115.3195 244.8126 13.16595571113959
